STARLINK-36545          
1 67505U 26012N   26046.83334490 -.01879748  00000+0 -51754-1 0  9994
2 67505  43.0007  77.6742 0000728 268.4356 356.5002 15.39769724  5563
STARLINK-36553          
1 67506U 26012P   26046.83334490 -.01883760  00000+0 -53998-1 0  9996
2 67506  43.0003  77.6017 0001126 263.3899  30.3647 15.38557900  5566
STARLINK-36521          
1 67507U 26012Q   26046.83334490 -.01892046  00000+0 -53383-1 0  9992
2 67507  43.0000  77.5791 0001299 265.3144  37.5996 15.39050686  5564
STARLINK-36526          
1 67508U 26012R   26046.83334490 -.01879938  00000+0 -51693-1 0  9990
2 67508  42.9996  77.5482 0001263 262.0285  53.4146 15.39804682  5562
STARLINK-36541          
1 67509U 26012S   26045.42889574  .00071950  00000+0  12184-2 0  9991
2 67509  42.9986  86.7186 0000543 353.0224   7.0629 15.50639519  4196
STARLINK-36549          
1 67510U 26012T   26046.83334490 -.01882817  00000+0 -56367-1 0  9996
2 67510  42.9997  77.4878 0001420 260.6803  75.7955 15.37231954  5502
STARLINK-36540          
1 67511U 26012U   26045.49165125  .00095249  00000+0  16087-2 0  9993
2 67511  43.0023  86.3251 0003376 283.9420  76.1065 15.50592337  4207
STARLINK-36538          
1 67512U 26012V   26046.83334490 -.01859387  00000+0 -67892-1 0  9999
2 67512  43.0003  78.0810 0001444 281.2265 176.3374 15.30995075  5567
STARLINK-36531          
1 67513U 26012W   26046.83334490 -.01881193  00000+0 -65725-1 0  9993
2 67513  43.0002  77.9538 0001207 289.0292 220.0361 15.32435944  5508
STARLINK-36530          
1 67514U 26012X   26046.83334490 -.01881908  00000+0 -63430-1 0  9999
2 67514  43.0004  77.9616 0001254 289.9137 216.3080 15.33565408  5503
STARLINK-36543          
1 67515U 26012Y   26046.83334490 -.01883032  00000+0 -61106-1 0  9998
2 67515  43.0001  77.9744 0001322 289.8479 211.4005 15.34749472  5506
STARLINK-36537          
1 67516U 26012Z   26046.83334490 -.01893549  00000+0 -61304-1 0  9993
2 67516  42.9999  77.8020 0000944 294.2654 276.2855 15.34845073  5507
