CCSDS_OMM_VERS = 2.0
CREATION_DATE  = 
ORIGINATOR     = 

OBJECT_NAME    = STARLINK-36545
OBJECT_ID      = 2026-012N
CENTER_NAME    = EARTH
REF_FRAME      = TEME
TIME_SYSTEM    = UTC
MEAN_ELEMENT_THEORY = SGP/SGP4

EPOCH          = 2026-02-15T20:00:00.999360
MEAN_MOTION    = 15.39769724
ECCENTRICITY   = .0000728
INCLINATION    = 43.0007
RA_OF_ASC_NODE = 77.6742
ARG_OF_PERICENTER = 268.4356
MEAN_ANOMALY   = 356.5002

EPHEMERIS_TYPE = 0
CLASSIFICATION_TYPE = U
NORAD_CAT_ID   = 67505
ELEMENT_SET_NO = 999
REV_AT_EPOCH   = 556
BSTAR          = -.51754E-1
MEAN_MOTION_DOT = -.1879748E-1
MEAN_MOTION_DDOT = 0

CCSDS_OMM_VERS = 2.0
CREATION_DATE  = 
ORIGINATOR     = 

OBJECT_NAME    = STARLINK-36553
OBJECT_ID      = 2026-012P
CENTER_NAME    = EARTH
REF_FRAME      = TEME
TIME_SYSTEM    = UTC
MEAN_ELEMENT_THEORY = SGP/SGP4

EPOCH          = 2026-02-15T20:00:00.999360
MEAN_MOTION    = 15.38557900
ECCENTRICITY   = .0001126
INCLINATION    = 43.0003
RA_OF_ASC_NODE = 77.6017
ARG_OF_PERICENTER = 263.3899
MEAN_ANOMALY   = 30.3647

EPHEMERIS_TYPE = 0
CLASSIFICATION_TYPE = U
NORAD_CAT_ID   = 67506
ELEMENT_SET_NO = 999
REV_AT_EPOCH   = 556
BSTAR          = -.53998E-1
MEAN_MOTION_DOT = -.188376E-1
MEAN_MOTION_DDOT = 0

CCSDS_OMM_VERS = 2.0
CREATION_DATE  = 
ORIGINATOR     = 

OBJECT_NAME    = STARLINK-36521
OBJECT_ID      = 2026-012Q
CENTER_NAME    = EARTH
REF_FRAME      = TEME
TIME_SYSTEM    = UTC
MEAN_ELEMENT_THEORY = SGP/SGP4

EPOCH          = 2026-02-15T20:00:00.999360
MEAN_MOTION    = 15.39050686
ECCENTRICITY   = .0001299
INCLINATION    = 43.0000
RA_OF_ASC_NODE = 77.5791
ARG_OF_PERICENTER = 265.3144
MEAN_ANOMALY   = 37.5996

EPHEMERIS_TYPE = 0
CLASSIFICATION_TYPE = U
NORAD_CAT_ID   = 67507
ELEMENT_SET_NO = 999
REV_AT_EPOCH   = 556
BSTAR          = -.53383E-1
MEAN_MOTION_DOT = -.1892046E-1
MEAN_MOTION_DDOT = 0

CCSDS_OMM_VERS = 2.0
CREATION_DATE  = 
ORIGINATOR     = 

OBJECT_NAME    = STARLINK-36526
OBJECT_ID      = 2026-012R
CENTER_NAME    = EARTH
REF_FRAME      = TEME
TIME_SYSTEM    = UTC
MEAN_ELEMENT_THEORY = SGP/SGP4

EPOCH          = 2026-02-15T20:00:00.999360
MEAN_MOTION    = 15.39804682
ECCENTRICITY   = .0001263
INCLINATION    = 42.9996
RA_OF_ASC_NODE = 77.5482
ARG_OF_PERICENTER = 262.0285
MEAN_ANOMALY   = 53.4146

EPHEMERIS_TYPE = 0
CLASSIFICATION_TYPE = U
NORAD_CAT_ID   = 67508
ELEMENT_SET_NO = 999
REV_AT_EPOCH   = 556
BSTAR          = -.51693E-1
MEAN_MOTION_DOT = -.1879938E-1
MEAN_MOTION_DDOT = 0

CCSDS_OMM_VERS = 2.0
CREATION_DATE  = 
ORIGINATOR     = 

OBJECT_NAME    = STARLINK-36541
OBJECT_ID      = 2026-012S
CENTER_NAME    = EARTH
REF_FRAME      = TEME
TIME_SYSTEM    = UTC
MEAN_ELEMENT_THEORY = SGP/SGP4

EPOCH          = 2026-02-14T10:17:36.591936
MEAN_MOTION    = 15.50639519
ECCENTRICITY   = .00005439
INCLINATION    = 42.9986
RA_OF_ASC_NODE = 86.7186
ARG_OF_PERICENTER = 353.0224
MEAN_ANOMALY   = 7.0629

EPHEMERIS_TYPE = 0
CLASSIFICATION_TYPE = U
NORAD_CAT_ID   = 67509
ELEMENT_SET_NO = 999
REV_AT_EPOCH   = 419
BSTAR          = .12183877E-2
MEAN_MOTION_DOT = .7195E-3
MEAN_MOTION_DDOT = 0

CCSDS_OMM_VERS = 2.0
CREATION_DATE  = 
ORIGINATOR     = 

OBJECT_NAME    = STARLINK-36549
OBJECT_ID      = 2026-012T
CENTER_NAME    = EARTH
REF_FRAME      = TEME
TIME_SYSTEM    = UTC
MEAN_ELEMENT_THEORY = SGP/SGP4

EPOCH          = 2026-02-15T20:00:00.999360
MEAN_MOTION    = 15.37231954
ECCENTRICITY   = .000142
INCLINATION    = 42.9997
RA_OF_ASC_NODE = 77.4878
ARG_OF_PERICENTER = 260.6803
MEAN_ANOMALY   = 75.7955

EPHEMERIS_TYPE = 0
CLASSIFICATION_TYPE = U
NORAD_CAT_ID   = 67510
ELEMENT_SET_NO = 999
REV_AT_EPOCH   = 550
BSTAR          = -.56367E-1
MEAN_MOTION_DOT = -.1882817E-1
MEAN_MOTION_DDOT = 0

CCSDS_OMM_VERS = 2.0
CREATION_DATE  = 
ORIGINATOR     = 

OBJECT_NAME    = STARLINK-36540
OBJECT_ID      = 2026-012U
CENTER_NAME    = EARTH
REF_FRAME      = TEME
TIME_SYSTEM    = UTC
MEAN_ELEMENT_THEORY = SGP/SGP4

EPOCH          = 2026-02-14T11:47:58.668000
MEAN_MOTION    = 15.50592337
ECCENTRICITY   = .00033767
INCLINATION    = 43.0023
RA_OF_ASC_NODE = 86.3251
ARG_OF_PERICENTER = 283.9420
MEAN_ANOMALY   = 76.1065

EPHEMERIS_TYPE = 0
CLASSIFICATION_TYPE = U
NORAD_CAT_ID   = 67511
ELEMENT_SET_NO = 999
REV_AT_EPOCH   = 420
BSTAR          = .1608741E-2
MEAN_MOTION_DOT = .95249E-3
MEAN_MOTION_DDOT = 0

CCSDS_OMM_VERS = 2.0
CREATION_DATE  = 
ORIGINATOR     = 

OBJECT_NAME    = STARLINK-36538
OBJECT_ID      = 2026-012V
CENTER_NAME    = EARTH
REF_FRAME      = TEME
TIME_SYSTEM    = UTC
MEAN_ELEMENT_THEORY = SGP/SGP4

EPOCH          = 2026-02-15T20:00:00.999360
MEAN_MOTION    = 15.30995075
ECCENTRICITY   = .0001444
INCLINATION    = 43.0003
RA_OF_ASC_NODE = 78.0810
ARG_OF_PERICENTER = 281.2265
MEAN_ANOMALY   = 176.3374

EPHEMERIS_TYPE = 0
CLASSIFICATION_TYPE = U
NORAD_CAT_ID   = 67512
ELEMENT_SET_NO = 999
REV_AT_EPOCH   = 556
BSTAR          = -.67892E-1
MEAN_MOTION_DOT = -.1859387E-1
MEAN_MOTION_DDOT = 0

CCSDS_OMM_VERS = 2.0
CREATION_DATE  = 
ORIGINATOR     = 

OBJECT_NAME    = STARLINK-36531
OBJECT_ID      = 2026-012W
CENTER_NAME    = EARTH
REF_FRAME      = TEME
TIME_SYSTEM    = UTC
MEAN_ELEMENT_THEORY = SGP/SGP4

EPOCH          = 2026-02-15T20:00:00.999360
MEAN_MOTION    = 15.32435944
ECCENTRICITY   = .0001207
INCLINATION    = 43.0002
RA_OF_ASC_NODE = 77.9538
ARG_OF_PERICENTER = 289.0292
MEAN_ANOMALY   = 220.0361

EPHEMERIS_TYPE = 0
CLASSIFICATION_TYPE = U
NORAD_CAT_ID   = 67513
ELEMENT_SET_NO = 999
REV_AT_EPOCH   = 550
BSTAR          = -.65725E-1
MEAN_MOTION_DOT = -.1881193E-1
MEAN_MOTION_DDOT = 0

CCSDS_OMM_VERS = 2.0
CREATION_DATE  = 
ORIGINATOR     = 

OBJECT_NAME    = STARLINK-36530
OBJECT_ID      = 2026-012X
CENTER_NAME    = EARTH
REF_FRAME      = TEME
TIME_SYSTEM    = UTC
MEAN_ELEMENT_THEORY = SGP/SGP4

EPOCH          = 2026-02-15T20:00:00.999360
MEAN_MOTION    = 15.33565408
ECCENTRICITY   = .0001254
INCLINATION    = 43.0004
RA_OF_ASC_NODE = 77.9616
ARG_OF_PERICENTER = 289.9137
MEAN_ANOMALY   = 216.3080

EPHEMERIS_TYPE = 0
CLASSIFICATION_TYPE = U
NORAD_CAT_ID   = 67514
ELEMENT_SET_NO = 999
REV_AT_EPOCH   = 550
BSTAR          = -.6343E-1
MEAN_MOTION_DOT = -.1881908E-1
MEAN_MOTION_DDOT = 0

CCSDS_OMM_VERS = 2.0
CREATION_DATE  = 
ORIGINATOR     = 

OBJECT_NAME    = STARLINK-36543
OBJECT_ID      = 2026-012Y
CENTER_NAME    = EARTH
REF_FRAME      = TEME
TIME_SYSTEM    = UTC
MEAN_ELEMENT_THEORY = SGP/SGP4

EPOCH          = 2026-02-15T20:00:00.999360
MEAN_MOTION    = 15.34749472
ECCENTRICITY   = .0001322
INCLINATION    = 43.0001
RA_OF_ASC_NODE = 77.9744
ARG_OF_PERICENTER = 289.8479
MEAN_ANOMALY   = 211.4005

EPHEMERIS_TYPE = 0
CLASSIFICATION_TYPE = U
NORAD_CAT_ID   = 67515
ELEMENT_SET_NO = 999
REV_AT_EPOCH   = 550
BSTAR          = -.61106E-1
MEAN_MOTION_DOT = -.1883032E-1
MEAN_MOTION_DDOT = 0

CCSDS_OMM_VERS = 2.0
CREATION_DATE  = 
ORIGINATOR     = 

OBJECT_NAME    = STARLINK-36537
OBJECT_ID      = 2026-012Z
CENTER_NAME    = EARTH
REF_FRAME      = TEME
TIME_SYSTEM    = UTC
MEAN_ELEMENT_THEORY = SGP/SGP4

EPOCH          = 2026-02-15T20:00:00.999360
MEAN_MOTION    = 15.34845073
ECCENTRICITY   = .0000944
INCLINATION    = 42.9999
RA_OF_ASC_NODE = 77.8020
ARG_OF_PERICENTER = 294.2654
MEAN_ANOMALY   = 276.2855

EPHEMERIS_TYPE = 0
CLASSIFICATION_TYPE = U
NORAD_CAT_ID   = 67516
ELEMENT_SET_NO = 999
REV_AT_EPOCH   = 550
BSTAR          = -.61304E-1
MEAN_MOTION_DOT = -.1893549E-1
MEAN_MOTION_DDOT = 0

